[
    {
        "Altitude(m)": 706389.1095987321,
        "Argument of Periapsis(deg)": 0.0022780242373254137,
        "Eccentricity": 0.0,
        "Inclination(deg)": 45.0,
        "Latitude(deg)": 41.02762276839087,
        "Longitude(deg)": -10.19510934859739,
        "Mean Anomaly(deg)": 67.76114332949616,
        "RAAN(deg)": 29.997849611708354,
        "Satellite Name": "Constellation 1 136",
        "Satellite Number": 136,
        "Semi-Major Axis(m)": 7083131.272910544,
        "Time(s)": 38
    },
    {
        "Altitude(m)": 706393.7920597974,
        "Argument of Periapsis(deg)": 0.002337972243570819,
        "Eccentricity": 0.0,
        "Inclination(deg)": 45.0,
        "Latitude(deg)": 41.049162067269464,
        "Longitude(deg)": -10.12409327854888,
        "Mean Anomaly(deg)": 67.82184446974607,
        "RAAN(deg)": 29.997793022542787,
        "Satellite Name": "Constellation 1 136",
        "Satellite Number": 136,
        "Semi-Major Axis(m)": 7083131.272910544,
        "Time(s)": 39
    },
    {
        "Altitude(m)": 706398.4652935334,
        "Argument of Periapsis(deg)": 0.0023979202498162246,
        "Eccentricity": 0.0,
        "Inclination(deg)": 45.0,
        "Latitude(deg)": 41.07065230016951,
        "Longitude(deg)": -10.053028286043247,
        "Mean Anomaly(deg)": 67.88254560999597,
        "RAAN(deg)": 29.99773643337722,
        "Satellite Name": "Constellation 1 136",
        "Satellite Number": 136,
        "Semi-Major Axis(m)": 7083131.272910544,
        "Time(s)": 40
    },
    {
        "Altitude(m)": 706403.129271884,
        "Argument of Periapsis(deg)": 0.00245786825606163,
        "Eccentricity": 0.0,
        "Inclination(deg)": 45.0,
        "Latitude(deg)": 41.09209339872596,
        "Longitude(deg)": -9.981914413839318,
        "Mean Anomaly(deg)": 67.94324675024586,
        "RAAN(deg)": 29.997679844211646,
        "Satellite Name": "Constellation 1 136",
        "Satellite Number": 136,
        "Semi-Major Axis(m)": 7083131.272910544,
        "Time(s)": 41
    },
    {
        "Altitude(m)": 706407.7839668338,
        "Argument of Periapsis(deg)": 0.002517816262307036,
        "Eccentricity": 0.0,
        "Inclination(deg)": 45.0,
        "Latitude(deg)": 41.11348529461432,
        "Longitude(deg)": -9.910751705207073,
        "Mean Anomaly(deg)": 68.00394789049577,
        "RAAN(deg)": 29.997623255046083,
        "Satellite Name": "Constellation 1 136",
        "Satellite Number": 136,
        "Semi-Major Axis(m)": 7083131.272910544,
        "Time(s)": 42
    },
    {
        "Altitude(m)": 706412.4293504453,
        "Argument of Periapsis(deg)": 0.0025777642685524413,
        "Eccentricity": 0.0,
        "Inclination(deg)": 45.0,
        "Latitude(deg)": 41.134827919551384,
        "Longitude(deg)": -9.839540203928834,
        "Mean Anomaly(deg)": 68.06464903074567,
        "RAAN(deg)": 29.99756666588051,
        "Satellite Name": "Constellation 1 136",
        "Satellite Number": 136,
        "Semi-Major Axis(m)": 7083131.272910544,
        "Time(s)": 43
    },
    {
        "Altitude(m)": 706417.0653948283,
        "Argument of Periapsis(deg)": 0.002637712274797847,
        "Eccentricity": 0.0,
        "Inclination(deg)": 45.0,
        "Latitude(deg)": 41.15612120529585,
        "Longitude(deg)": -9.76828012239697,
        "Mean Anomaly(deg)": 68.12535017099557,
        "RAAN(deg)": 29.99751007671494,
        "Satellite Name": "Constellation 1 136",
        "Satellite Number": 136,
        "Semi-Major Axis(m)": 7083131.272910544,
        "Time(s)": 44
    },
    {
        "Altitude(m)": 706421.6920721673,
        "Argument of Periapsis(deg)": 0.0026976602810432526,
        "Eccentricity": 0.0,
        "Inclination(deg)": 45.0,
        "Latitude(deg)": 41.17736508364995,
        "Longitude(deg)": -9.696971169227398,
        "Mean Anomaly(deg)": 68.18605131124546,
        "RAAN(deg)": 29.997453487549365,
        "Satellite Name": "Constellation 1 136",
        "Satellite Number": 136,
        "Semi-Major Axis(m)": 7083131.272910544,
        "Time(s)": 45
    },
    {
        "Altitude(m)": 706426.3093546912,
        "Argument of Periapsis(deg)": 0.0027576082872886585,
        "Eccentricity": 0.0,
        "Inclination(deg)": 45.0,
        "Latitude(deg)": 41.19855948645882,
        "Longitude(deg)": -9.625613557842138,
        "Mean Anomaly(deg)": 68.24675245149537,
        "RAAN(deg)": 29.9973968983838,
        "Satellite Name": "Constellation 1 136",
        "Satellite Number": 136,
        "Semi-Major Axis(m)": 7083131.272910544,
        "Time(s)": 46
    },
    {
        "Altitude(m)": 706430.9172147028,
        "Argument of Periapsis(deg)": 0.0028175562935340644,
        "Eccentricity": 0.0,
        "Inclination(deg)": 45.0,
        "Latitude(deg)": 41.21970434561207,
        "Longitude(deg)": -9.55420733408273,
        "Mean Anomaly(deg)": 68.30745359174526,
        "RAAN(deg)": 29.997340309218227,
        "Satellite Name": "Constellation 1 136",
        "Satellite Number": 136,
        "Semi-Major Axis(m)": 7083131.272910544,
        "Time(s)": 47
    },
    {
        "Altitude(m)": 706435.5156245655,
        "Argument of Periapsis(deg)": 0.00287750429977947,
        "Eccentricity": 0.0,
        "Inclination(deg)": 45.0,
        "Latitude(deg)": 41.24079959304458,
        "Longitude(deg)": -9.482752544307983,
        "Mean Anomaly(deg)": 68.36815473199515,
        "RAAN(deg)": 29.99728372005266,
        "Satellite Name": "Constellation 1 136",
        "Satellite Number": 136,
        "Semi-Major Axis(m)": 7083131.272910544,
        "Time(s)": 48
    },
    {
        "Altitude(m)": 706440.104556696,
        "Argument of Periapsis(deg)": 0.002937452306024875,
        "Eccentricity": 0.0,
        "Inclination(deg)": 45.0,
        "Latitude(deg)": 41.261845160737074,
        "Longitude(deg)": -9.411249235394935,
        "Mean Anomaly(deg)": 68.42885587224507,
        "RAAN(deg)": 29.99722713088709,
        "Satellite Name": "Constellation 1 136",
        "Satellite Number": 136,
        "Semi-Major Axis(m)": 7083131.272910544,
        "Time(s)": 49
    },
    {
        "Altitude(m)": 706444.683983576,
        "Argument of Periapsis(deg)": 0.0029974003122702807,
        "Eccentricity": 0.0,
        "Inclination(deg)": 45.0,
        "Latitude(deg)": 41.28284098071696,
        "Longitude(deg)": -9.3396974547403,
        "Mean Anomaly(deg)": 68.48955701249494,
        "RAAN(deg)": 29.997170541721523,
        "Satellite Name": "Constellation 1 136",
        "Satellite Number": 136,
        "Semi-Major Axis(m)": 7083131.272910544,
        "Time(s)": 50
    },
    {
        "Altitude(m)": 706449.2538777523,
        "Argument of Periapsis(deg)": 0.0030573483185156866,
        "Eccentricity": 0.0,
        "Inclination(deg)": 45.0,
        "Latitude(deg)": 41.303786985059126,
        "Longitude(deg)": -9.268097250260793,
        "Mean Anomaly(deg)": 68.55025815274485,
        "RAAN(deg)": 29.99711395255595,
        "Satellite Name": "Constellation 1 136",
        "Satellite Number": 136,
        "Semi-Major Axis(m)": 7083131.272910544,
        "Time(s)": 51
    },
    {
        "Altitude(m)": 706453.8142118307,
        "Argument of Periapsis(deg)": 0.003117296324761092,
        "Eccentricity": 0.0,
        "Inclination(deg)": 45.0,
        "Latitude(deg)": 41.32468310588635,
        "Longitude(deg)": -9.19644883849159,
        "Mean Anomaly(deg)": 68.61095929299474,
        "RAAN(deg)": 29.997057363390386,
        "Satellite Name": "Constellation 1 136",
        "Satellite Number": 136,
        "Semi-Major Axis(m)": 7083131.272910544,
        "Time(s)": 52
    },
    {
        "Altitude(m)": 706458.3649584803,
        "Argument of Periapsis(deg)": 0.0031772443310064975,
        "Eccentricity": 0.0,
        "Inclination(deg)": 45.0,
        "Latitude(deg)": 41.34552927537136,
        "Longitude(deg)": -9.12475193219922,
        "Mean Anomaly(deg)": 68.67166043324463,
        "RAAN(deg)": 29.997000774224812,
        "Satellite Name": "Constellation 1 136",
        "Satellite Number": 136,
        "Semi-Major Axis(m)": 7083131.272910544,
        "Time(s)": 53
    },
    {
        "Altitude(m)": 706462.9060904267,
        "Argument of Periapsis(deg)": 0.0032371923372519038,
        "Eccentricity": 0.0,
        "Inclination(deg)": 45.0,
        "Latitude(deg)": 41.36632542573577,
        "Longitude(deg)": -9.053006748964371,
        "Mean Anomaly(deg)": 68.73236157349454,
        "RAAN(deg)": 29.996944185059245,
        "Satellite Name": "Constellation 1 136",
        "Satellite Number": 136,
        "Semi-Major Axis(m)": 7083131.272910544,
        "Time(s)": 54
    },
    {
        "Altitude(m)": 706467.4375804642,
        "Argument of Periapsis(deg)": 0.0032971403434973088,
        "Eccentricity": 0.0,
        "Inclination(deg)": 45.0,
        "Latitude(deg)": 41.38707148925201,
        "Longitude(deg)": -8.981213338794925,
        "Mean Anomaly(deg)": 68.79306271374443,
        "RAAN(deg)": 29.99688759589367,
        "Satellite Name": "Constellation 1 136",
        "Satellite Number": 136,
        "Semi-Major Axis(m)": 7083131.272910544,
        "Time(s)": 55
    },
    {
        "Altitude(m)": 706471.959401446,
        "Argument of Periapsis(deg)": 0.0033570883497427146,
        "Eccentricity": 0.0,
        "Inclination(deg)": 45.0,
        "Latitude(deg)": 41.40776739824399,
        "Longitude(deg)": -8.909371752224025,
        "Mean Anomaly(deg)": 68.85376385399434,
        "RAAN(deg)": 29.996831006728108,
        "Satellite Name": "Constellation 1 136",
        "Satellite Number": 136,
        "Semi-Major Axis(m)": 7083131.272910544,
        "Time(s)": 56
    }
]